0 VANGUARD 1
1 00005U 58002B   25045.60889656  .00000264  00000-0  35436-3 0  9990
2 00005  34.2493  19.2327 1841322 100.1057 281.1229 10.85873516390271
