[{
    "OBJECT_NAME": "VANGUARD 1",
    "OBJECT_ID": "1958-002B",
    "EPOCH": "2025-02-14T14:36:48.662784",
    "MEAN_MOTION": 10.85873516,
    "ECCENTRICITY": 0.1841322,
    "INCLINATION": 34.2493,
    "RA_OF_ASC_NODE": 19.2327,
    "ARG_OF_PERICENTER": 100.1057,
    "MEAN_ANOMALY": 281.1229,
    "EPHEMERIS_TYPE": 0,
    "CLASSIFICATION_TYPE": "U",
    "NORAD_CAT_ID": 5,
    "ELEMENT_SET_NO": 999,
    "REV_AT_EPOCH": 39027,
    "BSTAR": 0.00035436,
    "MEAN_MOTION_DOT": 2.64e-6,
    "MEAN_MOTION_DDOT": 0
}]
